{
"type": "FeatureCollection",
"name": "sample_patches",
"crs": { "type": "name", "properties": { "name": "urn:ogc:def:crs:OGC:1.3:CRS84" } },
"features": [
{ "type": "Feature", "properties": { "id": 1 }, "geometry": { "type": "Polygon", "coordinates": [ [ [ -98.272570902366851, 21.272680636694894 ], [ -98.248418148753473, 21.273377745033478 ], [ -98.247885065906317, 21.252874558604471 ], [ -98.272283857756833, 21.252874558604471 ], [ -98.272570902366851, 21.272680636694894 ] ] ] } },
{ "type": "Feature", "properties": { "id": 2 }, "geometry": { "type": "Polygon", "coordinates": [ [ [ -67.583319442685678, -54.351641245404871 ], [ -67.462268630008822, -54.346064378696184 ], [ -67.461612528043091, -54.441199163726772 ], [ -67.581023085805626, -54.442511367658227 ], [ -67.583319442685678, -54.351641245404871 ] ] ] } },
{ "type": "Feature", "properties": { "id": 3 }, "geometry": { "type": "Polygon", "coordinates": [ [ [ 28.033659526337345, -29.409350929028225 ], [ 28.056090012290678, -29.409309922655368 ], [ 28.05600799954496, -29.436374128741654 ], [ 28.033290468981622, -29.436210103250225 ], [ 28.033659526337345, -29.409350929028225 ] ] ] } },
{ "type": "Feature", "properties": { "id": 4 }, "geometry": { "type": "Polygon", "coordinates": [ [ [ 19.577079277321157, 30.422637644367143 ], [ 19.58815099799282, 30.422719657112861 ], [ 19.588068985247105, 30.411401898204048 ], [ 19.577161290066872, 30.411524917322623 ], [ 19.577079277321157, 30.422637644367143 ] ] ] } },
{ "type": "Feature", "properties": { "id": 5 }, "geometry": { "type": "Polygon", "coordinates": [ [ [ 144.437876069153361, -3.795581257101651 ], [ 144.558270779864472, -3.792628798255874 ], [ 144.564503748538897, -3.937299281698937 ], [ 144.442140731930607, -3.942220046441898 ], [ 144.437876069153361, -3.795581257101651 ] ] ] } },
{ "type": "Feature", "properties": { "id": 6 }, "geometry": { "type": "Polygon", "coordinates": [ [ [ 169.856988489122813, -45.742845340339755 ], [ 169.869331407353059, -45.742804333966895 ], [ 169.870028515691644, -45.754491150231431 ], [ 169.857173017800676, -45.754757691655009 ], [ 169.856988489122813, -45.742845340339755 ] ] ] } },
{ "type": "Feature", "properties": { "id": 7 }, "geometry": { "type": "Polygon", "coordinates": [ [ [ 140.833313379001964, 35.759740090955844 ], [ 140.85033102373805, 35.759576065464415 ], [ 140.850372030110918, 35.742476407982622 ], [ 140.834010487340549, 35.742353388864046 ], [ 140.833313379001964, 35.759740090955844 ] ] ] } },
{ "type": "Feature", "properties": { "id": 8 }, "geometry": { "type": "Polygon", "coordinates": [ [ [ 112.3243297578084, 63.088150237567291 ], [ 112.418152338907518, 63.090774645430209 ], [ 112.426025562496264, 63.009418001679911 ], [ 112.321705349945475, 62.996952064331076 ], [ 112.3243297578084, 63.088150237567291 ] ] ] } },
{ "type": "Feature", "properties": { "id": 9 }, "geometry": { "type": "Polygon", "coordinates": [ [ [ 11.334162734081527, 48.004366045476552 ], [ 11.364917513725036, 48.006498376865167 ], [ 11.364507449996456, 47.985421101216154 ], [ 11.333752670352947, 47.984600973758994 ], [ 11.334162734081527, 48.004366045476552 ] ] ] } },
{ "type": "Feature", "properties": { "id": 10 }, "geometry": { "type": "Polygon", "coordinates": [ [ [ -115.758856970649362, 60.872247861066093 ], [ -115.704892583968217, 60.872575912048951 ], [ -115.704892583968217, 60.824844494042232 ], [ -115.758856970649362, 60.824024366585071 ], [ -115.758856970649362, 60.872247861066093 ] ] ] } },
{ "type": "Feature", "properties": { "id": 0 }, "geometry": { "type": "Polygon", "coordinates": [ [ [ 69.868750676622128, 32.109803849237124 ], [ 69.878018116888043, 32.1099268683557 ], [ 69.878510193362331, 32.101274523682662 ], [ 69.868873695740703, 32.101110498191225 ], [ 69.868750676622128, 32.109803849237124 ] ] ] } }
]
}
